1 44279U 19029AW  20345.52034716 +.00098788 +00000-0 +13451-2 0  9995
2 44279 052.9978 079.8168 0003020 022.7983 337.3161 15.56776526085684
1 44279U 19029AW  20345.77713553  .00097513  00000-0  13258-2 0  9995
2 44279  52.9978  78.5703 0002957  23.3517 336.7627 15.56821907 86453
1 44279U 19029AW  20345.96972228  .00099957  00000-0  13570-2 0  9993
2 44279  52.9978  77.6360 0003060  23.7102 336.4049 15.56850330 85751
1 44279U 19029AW  20346.54745293 +.00092154 +00000-0 +12477-2 0  9995
2 44279 052.9977 074.8313 0002925 023.6699 336.4446 15.56960747085841
1 44279U 19029AW  20346.74002201  .00095355  00000-0  12885-2 0  9991
2 44279  52.9979  73.8964 0002970  24.7304 335.3848 15.56997821 85879
1 44279U 19029AW  20346.74002201  .00095355  00000-0  12885-2 0  9991
2 44279  52.9979  73.8964 0002970  24.7304 335.3848 15.56997821 86601
1 44279U 19029AW  20347.51025764  .00083991  00000-0  11321-2 0  9993
2 44279  52.9984  70.1567 0003073  26.1303 333.9862 15.57122020 86721
1 44279U 19029AW  20347.63862514 +.00075473 +00000-0 +10185-2 0  9991
2 44279 052.9984 069.5332 0003083 026.7048 333.4121 15.57136378086012
1 44279U 19029AW  20347.95953517  .00082105  00000-0  11044-2 0  9995
2 44279  52.9985  67.9757 0003224  27.5635 332.5546 15.57186894 86068
1 44279U 19029AW  20348.47296985  .00077099  00000-0  10351-2 0  9998
2 44279  52.9984  65.4818 0003315  29.0535 331.0660 15.57264859 86873
1 44279U 19029AW  20348.92220535  .00076714  00000-0  10276-2 0  9995
2 44279  52.9981  63.3003 0003374  30.1639 329.9565 15.57327402 86218
1 44279U 19029AW  20349.56393911  .00062051  00000-0  83133-3 0  9997
2 44279  52.9980  60.1827 0003415  31.7139 328.4076 15.57412798 86319
1 44279U 19029AW  20350.52647182  .00065475  00000-0  87220-3 0  9991
2 44279  52.9983  55.5063 0003275  32.5378 327.5834 15.57543714 86461
1 44279U 19029AW  20350.65480367  .00065854  00000-0  87653-3 0  9996
2 44279  52.9983  54.8826 0003304  33.0158 327.1058 15.57563226 86481
1 44279U 19029AW  20351.42476384  .00066344  00000-0  87956-3 0  9997
2 44279  52.9979  51.1409 0003447  34.5535 325.5699 15.57665567 86604
1 44279U 19029AW  20351.68140615  .00065707  00000-0  87009-3 0  9991
2 44279  52.9978  49.8935 0003466  35.3644 324.7596 15.57701153 86645
1 44279U 19029AW  20351.68140615  .00065707  00000-0  87009-3 0  9991
2 44279  52.9978  49.8935 0003466  35.3644 324.7596 15.57701153 87376
1 44279U 19029AW  20352.45129728  .00072425  00000-0  95374-3 0  9998
2 44279  52.9975  46.1514 0003387  37.3244 322.8001 15.57808442 86767
1 44279U 19029AW  20352.45129728  .00072425  00000-0  95374-3 0  9998
2 44279  52.9975  46.1514 0003387  37.3244 322.8001 15.57808442 87498
1 44279U 19029AW  20353.15698602  .00065675  00000-0  86317-3 0  9994
2 44279  52.9975  42.7211 0003571  38.8697 321.2569 15.57900997 86878
1 44279U 19029AW  20353.47773987  .00062384  00000-0  81940-3 0  9990
2 44279  52.9980  41.1609 0003516  40.3757 319.7514 15.57939739 87657
1 44279U 19029AW  20353.60603920  .00068786  00000-0  90141-3 0  9999
2 44279  52.9981  40.5371 0003553  40.8041 319.3235 15.57960001 86942
1 44279U 19029AW  20353.86263325  .00075779  00000-0  99023-3 0  9996
2 44279  52.9980  39.2900 0003655  40.7897 319.3387 15.57994151 87712
1 44279U 19029AW  20354.43994858  .00061013  00000-0  79780-3 0  9996
2 44279  52.9979  36.4820 0003664  42.6736 317.4558 15.58068346 87070
1 44279U 19029AW  20354.43994858  .00061013  00000-0  79780-3 0  9996
2 44279  52.9979  36.4820 0003664  42.6736 317.4558 15.58068346 87801
1 44279U 19029AW  20354.82480970  .00074578  00000-0  97002-3 0  9991
2 44279  52.9978  34.6111 0003754  43.2860 316.8445 15.58124588 87133
1 44279U 19029AW  20355.14551639  .00075680  00000-0  98230-3 0  9997
2 44279  52.9977  33.0513 0003789  43.7743 316.3568 15.58173859 87916
1 44279U 19029AW  20355.40207429  .00070720  00000-0  91769-3 0  9991
2 44279  52.9978  31.8029 0003628  45.7843 314.3465 15.58209840 87228
1 44279U 19029AW  20355.59448960  .00073603  00000-0  95345-3 0  9995
2 44279  52.9980  30.8671 0003661  46.7298 313.4018 15.58238945 87250
1 44279U 19029AW  20356.42824507  .00069869  00000-0  90160-3 0  9992
2 44279  52.9985  26.8109 0003709  49.1807 310.9525 15.58363079 87388
1 44279U 19029AW  20356.42824507  .00069869  00000-0  90160-3 0  9992
2 44279  52.9985  26.8109 0003709  49.1807 310.9525 15.58363079 88110
1 44279U 19029AW  20356.55650945  .00087191  00000-0  11200-2 0  9994
2 44279  52.9986  26.1870 0003730  49.5921 310.5414 15.58389068 87404
1 44279U 19029AW  20356.55650945  .00087191  00000-0  11200-2 0  9994
2 44279  52.9986  26.1870 0003730  49.5921 310.5414 15.58389068 88135
1 44279U 19029AW  20357.45430099  .00100328  00000-0  12773-2 0  9994
2 44279  52.9983  21.8185 0003798  52.5314 307.6042 15.58562319 87547
1 44279U 19029AW  20357.45430099  .00100328  00000-0  12773-2 0  9994
2 44279  52.9983  21.8185 0003798  52.5314 307.6042 15.58562319 88278
1 44279U 19029AW  20358.48022241  .00096556  00000-0  12208-2 0  9994
2 44279  52.9983  16.8255 0003698  56.9726 303.1640 15.58764026 88436
1 44279U 19029AW  20358.54433864  .00112149  00000-0  14133-2 0  9994
2 44279  52.9984  16.5135 0003714  57.4411 302.6958 15.58780071 88442
1 44279U 19029AW  20359.05724622  .00099978  00000-0  12580-2 0  9994
2 44279  52.9984  14.0171 0003803  58.1456 301.9925 15.58874813 88524
1 44279U 19029AW  20359.44190534  .00077764  00000-0  98016-3 0  9994
2 44279  52.9986  12.1434 0003755  60.9947 299.1440 15.58941452 88589
1 44279U 19029AW  20359.76244162  .00100172  00000-0  12541-2 0  9994
2 44279  52.9985  10.5833 0003840  61.6345 298.5053 15.59007315 87908
1 44279U 19029AW  20360.14706717  .00105549  00000-0  13161-2 0  9999
2 44279  52.9982   8.7100 0003854  62.9163 297.2241 15.59089338 88695
1 44279U 19029AW  20360.40347419  .00083813  00000-0  10476-2 0  9993
2 44279  52.9982   7.4609 0003824  64.5905 295.5502 15.59129887 88004
1 44279U 19029AW  20360.40347419  .00083813  00000-0  10476-2 0  9993
2 44279  52.9982   7.4609 0003824  64.5905 295.5502 15.59129887 88734
1 44279U 19029AW  20360.72397387  .00084687  00000-0  10563-2 0  9994
2 44279  52.9982   5.9004 0003839  65.6454 294.4957 15.59180955 88053
1 44279U 19029AW  20361.42903212  .00063596  00000-0  79345-3 0  9992
2 44279  52.9983   2.4651 0003775  69.2163 290.9252 15.59295755 88166
1 44279U 19029AW  20361.42903212  .00063596  00000-0  79345-3 0  9992
2 44279  52.9983   2.4651 0003775  69.2163 290.9252 15.59295755 88896
1 44279U 19029AW  20361.49312572  .00078395  00000-0  97420-3 0  9999
2 44279  52.9983   2.1529 0003780  69.7469 290.3948 15.59312557 88174
1 44279U 19029AW  20361.49312572  .00078395  00000-0  97420-3 0  9999
2 44279  52.9983   2.1529 0003780  69.7469 290.3948 15.59312557 88905
1 44279U 19029AW  20362.39039213  .00089743  00000-0  11065-2 0  9996
2 44279  52.9984 357.7809 0003750  73.0368 287.1054 15.59460609 88318
1 44279U 19029AW  20362.71082396  .00092268  00000-0  11348-2 0  9992
2 44279  52.9983 356.2200 0003797  73.5474 286.5954 15.59513791 89099
1 44279U 19029AW  20363.28756939  .00088108  00000-0  10800-2 0  9996
2 44279  52.9984 353.4084 0003784  76.8045 283.3388 15.59622846 88452
1 44279U 19029AW  20363.41572973  .00084237  00000-0  10324-2 0  9995
2 44279  52.9984 352.7837 0003769  77.4954 282.6479 15.59646475 88478
1 44279U 19029AW  20364.12057253  .00091701  00000-0  11162-2 0  9998
2 44279  52.9982 349.3480 0003739  79.9552 280.1881 15.59789420 89312
1 44279U 19029AW  20364.44093498  .00100734  00000-0  12211-2 0  9997
2 44279  52.9988 347.7858 0003694  82.7485 277.3946 15.59855358 88634
1 44279U 19029AW  20364.44093498  .00100734  00000-0  12211-2 0  9997
2 44279  52.9988 347.7858 0003694  82.7485 277.3946 15.59855358 89365
1 44279U 19029AW  20365.40194262  .00100417  00000-0  12084-2 0  9991
2 44279  52.9988 343.0990 0003736  86.8947 273.2492 15.60048516 88784
1 44279U 19029AW  20365.65819409  .00097041  00000-0  11670-2 0  9993
2 44279  52.9988 341.8499 0003744  86.6634 273.4806 15.60081400 88829
1 44279U 19029AW  20365.65819409  .00097041  00000-0  11670-2 0  9993
2 44279  52.9988 341.8499 0003744  86.6634 273.4806 15.60081400 89550
1 44279U 19029AW  20366.17070243  .00061574  00000-0  74597-3 0  9996
2 44279  52.9990 339.3501 0003727  88.2248 271.9190 15.60082938 89634
1 44279U 19029AW  20366.36287693  .00055186  00000-0  66937-3 0  9997
2 44279  52.9987 338.4127 0003660  88.8817 271.2614 15.60098348 88936
1 44279U 19029AW  20366.93943037  .00042438  00000-0  51678-3 0  9993
2 44279  52.9987 335.6013 0003685  87.9072 272.2362 15.60109398 89029
1 44279U 19029AW  20366.93943037  .00042438  00000-0  51678-3 0  9993
2 44279  52.9987 335.6013 0003685  87.9072 272.2362 15.60109398 89759
1 44279U 19029AW  21001.64409935  .00011313  00000-0  14287-3 0  9995
2 44279  52.9994 332.1640 0003651  88.7218 271.4212 15.60112977 89133
1 44279U 19029AW  21001.64409935  .00011313  00000-0  14287-3 0  9995
2 44279  52.9994 332.1640 0003651  88.7218 271.4212 15.60112977 89863
1 44279U 19029AW  21002.28470178  .00010157  00000-0  12886-3 0  9991
2 44279  52.9993 329.0388 0003630  90.9996 269.1432 15.60126739 89231
1 44279U 19029AW  21002.92529915  .00009416  00000-0  11987-3 0  9993
2 44279  52.9992 325.9143 0003638  92.2542 267.8887 15.60138967 89330
1 44279U 19029AW  21003.18153668  .00009644  00000-0  12260-3 0  9998
2 44279  52.9993 324.6645 0003645  92.7799 267.3630 15.60144025 90101
1 44279U 19029AW  21003.24559585  .00009302  00000-0  11847-3 0  9994
2 44279  52.9993 324.3520 0003650  93.0111 267.1318 15.60144988 89385
1 44279U 19029AW  21004.14242048  .00009717  00000-0  12339-3 0  9994
2 44279  52.9991 319.9774 0003657  95.0178 265.1251 15.60162356 89525
1 44279U 19029AW  21004.59082876  .00009235  00000-0  11755-3 0  9990
2 44279  52.9989 317.7903 0003685  95.1815 264.9617 15.60170775 90329
1 44279U 19029AW  21005.23140827  .00009307  00000-0  11836-3 0  9993
2 44279  52.9988 314.6655 0003690  96.6934 263.4498 15.60182671 89699
